ONEWEB-0054             
1 45158U 20008AD  26192.51730650 -.00000279  00000+0 -83500-3 0  9998
2 45158  87.8812  31.4204 0001919  85.0806 275.0540 13.10377655311219
ONEWEB-0056             
1 45159U 20008AE  26192.48830172 -.00000130  00000+0 -40742-3 0  9992
2 45159  87.8818  31.4190 0002073  84.1413 275.9951 13.10369098311369
ONEWEB-0057             
1 45160U 20008AF  26192.50554308 -.00000599  00000+0 -17516-2 0  9992
2 45160  87.8820  31.4276 0001634  70.0519 290.0784 13.10372526311533
ONEWEB-0058             
1 45161U 20008AG  26192.49233927  .00000013  00000+0 -60633-7 0  9995
2 45161  87.8788  31.4316 0001968 103.8846 256.2501 13.10369159311607
ONEWEB-0059             
1 45162U 20008AH  26192.48860389 -.00000162  00000+0 -50102-3 0  9995
2 45162  87.8813  31.4344 0001523  85.9301 274.2000 13.10367229311500
ONEWEB-0062             
1 45163U 20008AJ  26192.51205965 -.00000607  00000+0 -17742-2 0  9999
2 45163  87.8827  31.4195 0001978  94.6900 265.4454 13.10374804311373
ONEWEB-0065             
1 45164U 20008AK  26192.54601476  .00000704  00000+0  19799-2 0  9990
2 45164  87.8811  31.4182 0001856  78.5908 281.5428 13.10374552311074
ONEWEB-0066             
1 45424U 20020A   26192.48536307  .00000150  00000+0  38799-3 0  9993
2 45424  87.8845  16.2292 0001800  92.7614 267.3720 13.11422828305862
ONEWEB-0067             
1 45425U 20020B   26192.52309823 -.00000156  00000+0 -47613-3 0  9993
2 45425  87.8905  16.1515 0001770  84.1077 276.0252 13.11423474305923
ONEWEB-0080             
1 45426U 20020C   26192.52281062 -.00000097  00000+0 -31010-3 0  9996
2 45426  87.8896  16.2242 0002024  97.2831 262.8527 13.11414582305891
ONEWEB-0090             
1 45427U 20020D   26192.47533097 -.00000225  00000+0 -67006-3 0  9996
2 45427  87.8895  16.2371 0001866  91.3703 268.7638 13.11418490305856
ONEWEB-0061             
1 45428U 20020E   26192.50727581  .00000526  00000+0  14492-2 0  9996
2 45428  87.8889  16.2153 0001828  90.3761 269.7577 13.11415824305816
ONEWEB-0081             
1 45429U 20020F   26192.48876360  .00000353  00000+0  95976-3 0  9999
2 45429  87.8889  16.2280 0001622  87.3393 272.7920 13.11417969305927
ONEWEB-0069             
1 45430U 20020G   26192.49060032  .00000410  00000+0  11212-2 0  9997
2 45430  87.8886  16.2309 0001622  90.6304 269.5009 13.11420159305856
ONEWEB-0031             
1 45431U 20020H   26192.52607384 -.00000187  00000+0 -56395-3 0  9994
2 45431  87.8875  16.2266 0001916  95.1080 265.0267 13.11415963305847
ONEWEB-0027             
1 45432U 20020J   26192.48466578 -.00003779  00000+0 -97679-2 0  9997
2 45432  87.9049   1.0231 0002404  95.6308 264.5097 13.17661762309550
ONEWEB-0064             
1 45433U 20020K   26192.52435829 -.00000324  00000+0 -94980-3 0  9994
2 45433  87.8871  16.2193 0002030  93.2027 266.9333 13.11414257305874
ONEWEB-0018             
1 45434U 20020L   26192.48013742  .00000015  00000+0  67165-5 0  9998
2 45434  87.8876  16.2291 0001563 100.2212 259.9092 13.11418066305814
ONEWEB-0083             
1 45435U 20020M   26192.47024218 -.00000383  00000+0 -11161-2 0  9990
2 45435  87.8888  16.2258 0001863  90.9066 269.2276 13.11418164305857
ONEWEB-0095             
1 45436U 20020N   26192.53805645 -.00000498  00000+0 -14413-2 0  9999
2 45436  87.8887  16.2210 0002406  78.2345 281.9053 13.11416154305860
ONEWEB-0092             
1 45437U 20020P   26192.49229454  .00000454  00000+0  12451-2 0  9993
2 45437  87.8888  16.2213 0001660  94.7643 265.3675 13.11415011305979
ONEWEB-0085             
1 45438U 20020Q   26192.46996566 -.00000397  00000+0 -11552-2 0  9995
2 45438  87.8881  16.2311 0001866  89.1878 270.9463 13.11417964305851
ONEWEB-0096             
1 45439U 20020R   26192.47179549 -.00000317  00000+0 -92963-3 0  9999
2 45439  87.8887  16.2280 0001966  87.0820 273.0533 13.11417734305844
ONEWEB-0037             
1 45440U 20020S   26192.49807341  .00000574  00000+0  15836-2 0  9997
2 45440  87.8898  16.1954 0001985  87.1937 272.9418 13.11416169305881
ONEWEB-0042             
1 45441U 20020T   26192.53778567 -.00000440  00000+0 -12774-2 0  9992
2 45441  87.8888  16.2113 0001767  87.2756 272.8574 13.11416942305855
ONEWEB-0098             
1 45442U 20020U   26192.53367414 -.00000493  00000+0 -14258-2 0  9995
2 45442  87.8885  16.2211 0001879  91.5821 268.5522 13.11414589305835
ONEWEB-0055             
1 45443U 20020V   26192.51236635  .00000357  00000+0  97209-3 0  9999
2 45443  87.8889  16.2242 0001902  92.9907 267.1439 13.11414842305802
ONEWEB-0093             
1 45444U 20020W   26192.49784422  .00000629  00000+0  17515-2 0  9992
2 45444  87.8885  16.2224 0001542  86.3754 273.7550 13.10893150305861
ONEWEB-0029             
1 45445U 20020X   26192.51942065  .00000022  00000+0  26848-4 0  9993
2 45445  87.8888  16.2242 0001603  88.0464 272.0848 13.11413840305845
ONEWEB-0068             
1 45446U 20020Y   26192.49202343  .00000460  00000+0  12614-2 0  9999
2 45446  87.8893  16.2253 0001616  89.4855 270.6458 13.11417510305789
ONEWEB-0046             
1 45447U 20020Z   26192.48367028  .00000144  00000+0  37028-3 0  9997
2 45447  87.8879  16.2307 0001696  81.6353 278.4967 13.11419050305792
