OBJECT_NAME,OBJECT_ID,EPOCH,MEAN_MOTION,ECCENTRICITY,INCLINATION,RA_OF_ASC_NODE,ARG_OF_PERICENTER,MEAN_ANOMALY,EPHEMERIS_TYPE,CLASSIFICATION_TYPE,NORAD_CAT_ID,ELEMENT_SET_NO,REV_AT_EPOCH,BSTAR,MEAN_MOTION_DOT,MEAN_MOTION_DDOT
ONEWEB-0054,2020-008AD,2026-07-11T12:24:55.281600,13.10377655,.0001919,87.8812,31.4204,85.0806,275.0540,0,U,45158,999,31121,-.835E-3,-.279E-5,0
ONEWEB-0056,2020-008AE,2026-07-11T11:43:09.268608,13.10369098,.0002073,87.8818,31.4190,84.1413,275.9951,0,U,45159,999,31136,-.40742E-3,-.13E-5,0
ONEWEB-0057,2020-008AF,2026-07-11T12:07:58.922112,13.10372526,.0001634,87.8820,31.4276,70.0519,290.0784,0,U,45160,999,31153,-.17516E-2,-.599E-5,0
ONEWEB-0058,2020-008AG,2026-07-11T11:48:58.112928,13.10369159,.0001968,87.8788,31.4316,103.8846,256.2501,0,U,45161,999,31160,-.60633E-7,.13E-6,0
ONEWEB-0059,2020-008AH,2026-07-11T11:43:35.376096,13.10367229,.0001523,87.8813,31.4344,85.9301,274.2000,0,U,45162,999,31150,-.50102E-3,-.162E-5,0
ONEWEB-0062,2020-008AJ,2026-07-11T12:17:21.953760,13.10374804,.0001978,87.8827,31.4195,94.6900,265.4454,0,U,45163,999,31137,-.17742E-2,-.607E-5,0
ONEWEB-0065,2020-008AK,2026-07-11T13:06:15.675264,13.10374552,.0001856,87.8811,31.4182,78.5908,281.5428,0,U,45164,999,31107,.19799E-2,.704E-5,0
ONEWEB-0066,2020-020A,2026-07-11T11:38:55.369248,13.11422828,.00018,87.8845,16.2292,92.7614,267.3720,0,U,45424,999,30586,.38799E-3,.15E-5,0
ONEWEB-0067,2020-020B,2026-07-11T12:33:15.687072,13.11423474,.000177,87.8905,16.1515,84.1077,276.0252,0,U,45425,999,30592,-.47613E-3,-.156E-5,0
ONEWEB-0080,2020-020C,2026-07-11T12:32:50.837568,13.11414582,.0002024,87.8896,16.2242,97.2831,262.8527,0,U,45426,999,30589,-.3101E-3,-.97E-6,0
ONEWEB-0090,2020-020D,2026-07-11T11:24:28.595808,13.11418490,.0001866,87.8895,16.2371,91.3703,268.7638,0,U,45427,999,30585,-.67006E-3,-.225E-5,0
ONEWEB-0061,2020-020E,2026-07-11T12:10:28.629984,13.11415824,.0001828,87.8889,16.2153,90.3761,269.7577,0,U,45428,999,30581,.14492E-2,.526E-5,0
ONEWEB-0081,2020-020F,2026-07-11T11:43:49.175040,13.11417969,.0001622,87.8889,16.2280,87.3393,272.7920,0,U,45429,999,30592,.95976E-3,.353E-5,0
ONEWEB-0069,2020-020G,2026-07-11T11:46:27.867648,13.11420159,.0001622,87.8886,16.2309,90.6304,269.5009,0,U,45430,999,30585,.11212E-2,.41E-5,0
ONEWEB-0031,2020-020H,2026-07-11T12:37:32.779776,13.11415963,.0001916,87.8875,16.2266,95.1080,265.0267,0,U,45431,999,30584,-.56395E-3,-.187E-5,0
ONEWEB-0027,2020-020J,2026-07-11T11:37:55.123392,13.17661762,.0002404,87.9049,1.0231,95.6308,264.5097,0,U,45432,999,30955,-.97679E-2,-.3779E-4,0
ONEWEB-0064,2020-020K,2026-07-11T12:35:04.556256,13.11414257,.000203,87.8871,16.2193,93.2027,266.9333,0,U,45433,999,30587,-.9498E-3,-.324E-5,0
ONEWEB-0018,2020-020L,2026-07-11T11:31:23.873088,13.11418066,.0001563,87.8876,16.2291,100.2212,259.9092,0,U,45434,999,30581,.67165E-5,.15E-6,0
ONEWEB-0083,2020-020M,2026-07-11T11:17:08.924352,13.11418164,.0001863,87.8888,16.2258,90.9066,269.2276,0,U,45435,999,30585,-.11161E-2,-.383E-5,0
ONEWEB-0095,2020-020N,2026-07-11T12:54:48.077280,13.11416154,.0002406,87.8887,16.2210,78.2345,281.9053,0,U,45436,999,30586,-.14413E-2,-.498E-5,0
ONEWEB-0092,2020-020P,2026-07-11T11:48:54.248256,13.11415011,.000166,87.8888,16.2213,94.7643,265.3675,0,U,45437,999,30597,.12451E-2,.454E-5,0
ONEWEB-0085,2020-020Q,2026-07-11T11:16:45.033024,13.11417964,.0001866,87.8881,16.2311,89.1878,270.9463,0,U,45438,999,30585,-.11552E-2,-.397E-5,0
ONEWEB-0096,2020-020R,2026-07-11T11:19:23.130336,13.11417734,.0001966,87.8887,16.2280,87.0820,273.0533,0,U,45439,999,30584,-.92963E-3,-.317E-5,0
ONEWEB-0037,2020-020S,2026-07-11T11:57:13.542624,13.11416169,.0001985,87.8898,16.1954,87.1937,272.9418,0,U,45440,999,30588,.15836E-2,.574E-5,0
ONEWEB-0042,2020-020T,2026-07-11T12:54:24.681888,13.11416942,.0001767,87.8888,16.2113,87.2756,272.8574,0,U,45441,999,30585,-.12774E-2,-.44E-5,0
ONEWEB-0098,2020-020U,2026-07-11T12:48:29.445696,13.11414589,.0001879,87.8885,16.2211,91.5821,268.5522,0,U,45442,999,30583,-.14258E-2,-.493E-5,0
ONEWEB-0055,2020-020V,2026-07-11T12:17:48.452640,13.11414842,.0001902,87.8889,16.2242,92.9907,267.1439,0,U,45443,999,30580,.97209E-3,.357E-5,0
ONEWEB-0093,2020-020W,2026-07-11T11:56:53.740608,13.10893150,.0001542,87.8885,16.2224,86.3754,273.7550,0,U,45444,999,30586,.17515E-2,.629E-5,0
ONEWEB-0029,2020-020X,2026-07-11T12:27:57.944160,13.11413840,.0001603,87.8888,16.2242,88.0464,272.0848,0,U,45445,999,30584,.26848E-4,.22E-6,0
ONEWEB-0068,2020-020Y,2026-07-11T11:48:30.824352,13.11417510,.0001616,87.8893,16.2253,89.4855,270.6458,0,U,45446,999,30578,.12614E-2,.46E-5,0
ONEWEB-0046,2020-020Z,2026-07-11T11:36:29.112192,13.11419050,.0001696,87.8879,16.2307,81.6353,278.4967,0,U,45447,999,30579,.37028E-3,.144E-5,0
